{
  "norad_id": 58238,
  "name": "STARLINK-30817",
  "history": [
    {
      "epoch": "2026-03-28T12:29:52.892448Z",
      "apogee_km": 486.289000733349,
      "perigee_km": 484.7762479481453,
      "latitude_deg": 6.949068028779022e-06,
      "longitude_deg": 165.54031075599858,
      "height_km": 485.6154242509002,
      "semi_major_axis_km": 6863.669624340747,
      "eccentricity": 0.0001102,
      "inclination_deg": 43.0007,
      "raan_deg": 178.9507,
      "arg_perigee_deg": 246.1101,
      "mean_anomaly_deg": 113.9635,
      "mean_motion_rev_day": 15.26750973
    }
  ]
}